[
    {
        "Altitude(m)": 714587.3678868185,
        "Argument of Periapsis(deg)": 0.009112096949301655,
        "Eccentricity": 0.0,
        "Inclination(deg)": 45.0,
        "Latitude(deg)": -37.172201187039754,
        "Longitude(deg)": 78.34353006231561,
        "Mean Anomaly(deg)": -121.68252668201538,
        "RAAN(deg)": 309.9913984468334,
        "Satellite Name": "Constellation 1 1378",
        "Satellite Number": 1378,
        "Semi-Major Axis(m)": 7083131.272910544,
        "Time(s)": 152
    },
    {
        "Altitude(m)": 714598.9415397383,
        "Argument of Periapsis(deg)": 0.009172044955547059,
        "Eccentricity": 0.0,
        "Inclination(deg)": 45.0,
        "Latitude(deg)": -37.20039358677821,
        "Longitude(deg)": 78.40662557107645,
        "Mean Anomaly(deg)": -121.6218255417654,
        "RAAN(deg)": 309.99134185766786,
        "Satellite Name": "Constellation 1 1378",
        "Satellite Number": 1378,
        "Semi-Major Axis(m)": 7083131.272910544,
        "Time(s)": 153
    },
    {
        "Altitude(m)": 714610.5008080723,
        "Argument of Periapsis(deg)": 0.009231992961792466,
        "Eccentricity": 0.0,
        "Inclination(deg)": 45.0,
        "Latitude(deg)": -37.22854766466899,
        "Longitude(deg)": 78.4697709048829,
        "Mean Anomaly(deg)": -121.56112440151547,
        "RAAN(deg)": 309.9912852685023,
        "Satellite Name": "Constellation 1 1378",
        "Satellite Number": 1378,
        "Semi-Major Axis(m)": 7083131.272910544,
        "Time(s)": 154
    },
    {
        "Altitude(m)": 714622.0456499845,
        "Argument of Periapsis(deg)": 0.009291940968037872,
        "Eccentricity": 0.0,
        "Inclination(deg)": 45.0,
        "Latitude(deg)": -37.2566633542859,
        "Longitude(deg)": 78.53296608391685,
        "Mean Anomaly(deg)": -121.50042326126561,
        "RAAN(deg)": 309.99122867933676,
        "Satellite Name": "Constellation 1 1378",
        "Satellite Number": 1378,
        "Semi-Major Axis(m)": 7083131.272910544,
        "Time(s)": 155
    },
    {
        "Altitude(m)": 714633.5760236899,
        "Argument of Periapsis(deg)": 0.009351888974283276,
        "Eccentricity": 0.0,
        "Inclination(deg)": 45.0,
        "Latitude(deg)": -37.284740589159405,
        "Longitude(deg)": 78.59621095996506,
        "Mean Anomaly(deg)": -121.43972212101575,
        "RAAN(deg)": 309.9911720901712,
        "Satellite Name": "Constellation 1 1378",
        "Satellite Number": 1378,
        "Semi-Major Axis(m)": 7083131.272910544,
        "Time(s)": 156
    },
    {
        "Altitude(m)": 714645.0918874578,
        "Argument of Periapsis(deg)": 0.00941183698052868,
        "Eccentricity": 0.0,
        "Inclination(deg)": 45.0,
        "Latitude(deg)": -37.31277930277619,
        "Longitude(deg)": 78.65950588880449,
        "Mean Anomaly(deg)": -121.37902098076582,
        "RAAN(deg)": 309.9911155010056,
        "Satellite Name": "Constellation 1 1378",
        "Satellite Number": 1378,
        "Semi-Major Axis(m)": 7083131.272910544,
        "Time(s)": 157
    },
    {
        "Altitude(m)": 714656.5931996003,
        "Argument of Periapsis(deg)": 0.009471784986774088,
        "Eccentricity": 0.0,
        "Inclination(deg)": 45.0,
        "Latitude(deg)": -37.34077942858025,
        "Longitude(deg)": 78.72285072162005,
        "Mean Anomaly(deg)": -121.31831984051591,
        "RAAN(deg)": 309.99105891184,
        "Satellite Name": "Constellation 1 1378",
        "Satellite Number": 1378,
        "Semi-Major Axis(m)": 7083131.272910544,
        "Time(s)": 158
    },
    {
        "Altitude(m)": 714668.079918477,
        "Argument of Periapsis(deg)": 0.009531732993019492,
        "Eccentricity": 0.0,
        "Inclination(deg)": 45.0,
        "Latitude(deg)": -37.36874089997291,
        "Longitude(deg)": 78.78624547739093,
        "Mean Anomaly(deg)": -121.25761870026608,
        "RAAN(deg)": 309.99100232267443,
        "Satellite Name": "Constellation 1 1378",
        "Satellite Number": 1378,
        "Semi-Major Axis(m)": 7083131.272910544,
        "Time(s)": 159
    },
    {
        "Altitude(m)": 714679.552002498,
        "Argument of Periapsis(deg)": 0.009591680999264898,
        "Eccentricity": 0.0,
        "Inclination(deg)": 45.0,
        "Latitude(deg)": -37.39666365031331,
        "Longitude(deg)": 78.84969017479196,
        "Mean Anomaly(deg)": -121.1969175600161,
        "RAAN(deg)": 309.9909457335089,
        "Satellite Name": "Constellation 1 1378",
        "Satellite Number": 1378,
        "Semi-Major Axis(m)": 7083131.272910544,
        "Time(s)": 160
    },
    {
        "Altitude(m)": 714691.0094101238,
        "Argument of Periapsis(deg)": 0.009651629005510304,
        "Eccentricity": 0.0,
        "Inclination(deg)": 45.0,
        "Latitude(deg)": -37.42454761291845,
        "Longitude(deg)": 78.91318483219207,
        "Mean Anomaly(deg)": -121.13621641976627,
        "RAAN(deg)": 309.9908891443433,
        "Satellite Name": "Constellation 1 1378",
        "Satellite Number": 1378,
        "Semi-Major Axis(m)": 7083131.272910544,
        "Time(s)": 161
    },
    {
        "Altitude(m)": 714702.4520998702,
        "Argument of Periapsis(deg)": 0.00971157701175571,
        "Eccentricity": 0.0,
        "Inclination(deg)": 45.0,
        "Latitude(deg)": -37.452392721064015,
        "Longitude(deg)": 78.9767294676535,
        "Mean Anomaly(deg)": -121.07551527951631,
        "RAAN(deg)": 309.99083255517775,
        "Satellite Name": "Constellation 1 1378",
        "Satellite Number": 1378,
        "Semi-Major Axis(m)": 7083131.272910544,
        "Time(s)": 162
    },
    {
        "Altitude(m)": 714713.880030286,
        "Argument of Periapsis(deg)": 0.009771525018001118,
        "Eccentricity": 0.0,
        "Inclination(deg)": 45.0,
        "Latitude(deg)": -37.48019890798432,
        "Longitude(deg)": 79.04032393083283,
        "Mean Anomaly(deg)": -121.01481413926642,
        "RAAN(deg)": 309.99077596601217,
        "Satellite Name": "Constellation 1 1378",
        "Satellite Number": 1378,
        "Semi-Major Axis(m)": 7083131.272910544,
        "Time(s)": 163
    },
    {
        "Altitude(m)": 714725.2931599846,
        "Argument of Periapsis(deg)": 0.00983147302424652,
        "Eccentricity": 0.0,
        "Inclination(deg)": 45.0,
        "Latitude(deg)": -37.507966106872644,
        "Longitude(deg)": 79.10396857536723,
        "Mean Anomaly(deg)": -120.95411299901656,
        "RAAN(deg)": 309.9907193768466,
        "Satellite Name": "Constellation 1 1378",
        "Satellite Number": 1378,
        "Semi-Major Axis(m)": 7083131.272910544,
        "Time(s)": 164
    },
    {
        "Altitude(m)": 714736.6914476261,
        "Argument of Periapsis(deg)": 0.009891421030491928,
        "Eccentricity": 0.0,
        "Inclination(deg)": 45.0,
        "Latitude(deg)": -37.535694250882145,
        "Longitude(deg)": 79.16766325029255,
        "Mean Anomaly(deg)": -120.8934118587667,
        "RAAN(deg)": 309.99066278768106,
        "Satellite Name": "Constellation 1 1378",
        "Satellite Number": 1378,
        "Semi-Major Axis(m)": 7083131.272910544,
        "Time(s)": 165
    },
    {
        "Altitude(m)": 714748.0748519114,
        "Argument of Periapsis(deg)": 0.009951369036737332,
        "Eccentricity": 0.0,
        "Inclination(deg)": 45.0,
        "Latitude(deg)": -37.56338327312575,
        "Longitude(deg)": 79.23140797242834,
        "Mean Anomaly(deg)": -120.83271071851676,
        "RAAN(deg)": 309.9906061985155,
        "Satellite Name": "Constellation 1 1378",
        "Satellite Number": 1378,
        "Semi-Major Axis(m)": 7083131.272910544,
        "Time(s)": 166
    },
    {
        "Altitude(m)": 714759.443331607,
        "Argument of Periapsis(deg)": 0.010011317042982738,
        "Eccentricity": 0.0,
        "Inclination(deg)": 45.0,
        "Latitude(deg)": -37.59103310667645,
        "Longitude(deg)": 79.29520275828007,
        "Mean Anomaly(deg)": -120.77200957826679,
        "RAAN(deg)": 309.9905496093499,
        "Satellite Name": "Constellation 1 1378",
        "Satellite Number": 1378,
        "Semi-Major Axis(m)": 7083131.272910544,
        "Time(s)": 167
    },
    {
        "Altitude(m)": 714770.7968455144,
        "Argument of Periapsis(deg)": 0.010071265049228144,
        "Eccentricity": 0.0,
        "Inclination(deg)": 45.0,
        "Latitude(deg)": -37.61864368456795,
        "Longitude(deg)": 79.35904762403752,
        "Mean Anomaly(deg)": -120.71130843801703,
        "RAAN(deg)": 309.9904930201843,
        "Satellite Name": "Constellation 1 1378",
        "Satellite Number": 1378,
        "Semi-Major Axis(m)": 7083131.272910544,
        "Time(s)": 168
    },
    {
        "Altitude(m)": 714782.1353524971,
        "Argument of Periapsis(deg)": 0.01013121305547355,
        "Eccentricity": 0.0,
        "Inclination(deg)": 45.0,
        "Latitude(deg)": -37.646214939795,
        "Longitude(deg)": 79.422942585574,
        "Mean Anomaly(deg)": -120.65060729776705,
        "RAAN(deg)": 309.99043643101874,
        "Satellite Name": "Constellation 1 1378",
        "Satellite Number": 1378,
        "Semi-Major Axis(m)": 7083131.272910544,
        "Time(s)": 169
    },
    {
        "Altitude(m)": 714793.4588114654,
        "Argument of Periapsis(deg)": 0.010191161061718957,
        "Eccentricity": 0.0,
        "Inclination(deg)": 45.0,
        "Latitude(deg)": -37.67374680531364,
        "Longitude(deg)": 79.48688765844396,
        "Mean Anomaly(deg)": -120.58990615751712,
        "RAAN(deg)": 309.9903798418532,
        "Satellite Name": "Constellation 1 1378",
        "Satellite Number": 1378,
        "Semi-Major Axis(m)": 7083131.272910544,
        "Time(s)": 170
    }
]